[
    {
        "Altitude(m)": 624790.8374884088,
        "Argument of Periapsis(deg)": 0.0,
        "Eccentricity": 0.0,
        "Inclination(deg)": 60.0,
        "Latitude(deg)": -59.147244213748635,
        "Longitude(deg)": -68.96533700121383,
        "Mean Anomaly(deg)": -81.81820000000003,
        "RAAN(deg)": 105.0,
        "Satellite Name": "Test1 479",
        "Satellite Number": 479,
        "Semi-Major Axis(m)": 6980739.136638005,
        "Time(s)": 0
    },
    {
        "Altitude(m)": 624737.4924494755,
        "Argument of Periapsis(deg)": 0.00010418945913296404,
        "Eccentricity": 0.0,
        "Inclination(deg)": 60.0,
        "Latitude(deg)": -58.99469866896391,
        "Longitude(deg)": -67.84583115198903,
        "Mean Anomaly(deg)": -81.19809385453814,
        "RAAN(deg)": 104.99957995086028,
        "Satellite Name": "Test1 479",
        "Satellite Number": 479,
        "Semi-Major Axis(m)": 6980739.136638005,
        "Time(s)": 10
    }
]